KUIPER-00079            
1 64826U 25151L   25246.91667824 -.01037324  00000+0 -59915-1 0  9993
2 64826  51.8888  49.9645 0010038 330.1226 177.7795 15.14880417  4839
KUIPER-00080            
1 64827U 25151M   25246.91667824 -.00349527  00000+0 -18907-1 0  9990
2 64827  51.9001  49.9535 0003922   9.8521 211.8104 15.15854679  5644
KUIPER-00082            
1 64828U 25151N   25246.71549291  .00056195  00000+0  15431-2 0  9990
2 64828  51.8807  49.0386 0006319 316.3548  43.6938 15.36677721  7597
KUIPER-00083            
1 64829U 25151P   25246.91667824 -.00566958  00000+0 -23035-1 0  9999
2 64829  51.8810  48.5692 0007548 333.1159 156.1752 15.26156458  4494
KUIPER-00084            
1 64830U 25151Q   25246.91667824  .00029522  00000+0  23585-2 0  9991
2 64830  51.8930  52.6979 0010323 323.5852 257.7256 14.99973118  5601
KUIPER-00085            
1 64831U 25151R   25246.71053319  .00066096  00000+0  17984-2 0  9991
2 64831  51.8802  49.0089 0007069 313.3316  46.7081 15.36884811  7592
KUIPER-00086            
1 64832U 25151S   25246.91667824 -.00689728  00000+0 -33418-1 0  9990
2 64832  51.8823  49.1753 0010619 316.2076 227.7526 15.20294385  5389
KUIPER-00087            
1 64833U 25151T   25246.71859962  .00044522  00000+0  12308-2 0  9996
2 64833  51.8788  49.0617 0005841 319.6793  40.3759 15.36574584  7593
